{"spkid": "50180209", "covariance": {"epoch": "2458416.5", "labels": ["e", "q", "tp", "node", "peri", "i"], "data": [["2.259245900083418E-14", "-3.159857471513777E-14", "3.884965735806501E-11", "3.617909038150864E-13", "3.435453539562998E-11", "1.463907016207849E-11"], ["-3.159857471513777E-14", "4.421695145898273E-14", "-5.37174426938863E-11", "-4.771798215647721E-13", "-4.758612029623524E-11", "-2.015581990476294E-11"], ["3.884965735806501E-11", "-5.37174426938863E-11", "8.467639152479308E-8", "1.476264220762153E-9", "7.258031723348023E-8", "3.40754467742013E-8"], ["3.617909038150864E-13", "-4.771798215647721E-13", "1.476264220762153E-9", "6.794144610542092E-11", "1.183132203573503E-9", "6.190768823111942E-10"], ["3.435453539562998E-11", "-4.758612029623524E-11", "7.258031723348023E-8", "1.183132203573503E-9", "6.249294160714686E-8", "2.893935409233156E-8"], ["1.463907016207849E-11", "-2.015581990476294E-11", "3.40754467742013E-8", "6.190768823111942E-10", "2.893935409233156E-8", "1.433352289461952E-8"]], "elements": [{"label": "e", "units": null, "title": "eccentricity", "value": ".285339642951787", "sigma": 1.50307880701027e-07, "name": "e"}, {"name": "q", "sigma": 2.10278271485626e-07, "value": "1.029584168315478", "title": "perihelion distance", "units": "au", "label": "q"}, {"label": "tp", "name": "tp", "sigma": 0.000290992081549985, "units": "TDB", "title": "time of perihelion passage", "value": "2458194.153550841388"}, {"label": "node", "units": "deg", "title": "longitude of the ascending node", "value": "41.71049025126933", "name": "om", "sigma": 8.242660135261e-06}, {"units": "deg", "title": "argument of perihelion", "value": "196.2911910294895", "sigma": 0.000249985882815704, "name": "w", "label": "peri"}, {"name": "i", "sigma": 0.000119722691644565, "title": "inclination", "value": "30.03785650162961", "units": "deg", "label": "i"}]}, "elements": [{"sigma": "1.4913E-7", "name": "e", "value": ".2855130832926944", "title": "eccentricity", "units": null, "label": "e"}, {"label": "a", "name": "a", "sigma": "5.1657E-9", "units": "au", "title": "semi-major axis", "value": "1.441084523740432"}, {"name": "q", "sigma": "2.1201E-7", "units": "au", "title": "perihelion distance", "value": "1.029636038081917", "label": "q"}, {"name": "i", "sigma": ".00011971", "units": "deg", "value": "30.02926675543258", "title": "inclination; angle with respect to x-y ecliptic plane", "label": "i"}, {"label": "node", "units": "deg", "title": "longitude of the ascending node", "value": "41.67540577619389", "name": "om", "sigma": "8.2968E-6"}, {"sigma": ".00024977", "name": "w", "value": "196.353303122638", "title": "argument of perihelion", "units": "deg", "label": "peri"}, {"sigma": ".00018101", "name": "ma", "units": "deg", "title": "mean anomaly", "value": "273.3229576488309", "label": "M"}, {"label": "tp", "name": "tp", "sigma": ".00031851", "units": "TDB", "value": "2461352.636769805475", "title": "time of perihelion passage"}, {"units": "d", "value": "631.8770881460795", "title": "sidereal orbital period", "sigma": "3.3975E-6", "name": "per", "label": "period"}, {"units": "deg/d", "title": "mean motion", "value": ".5697310549053711", "name": "n", "sigma": "3.0634E-9", "label": "n"}, {"name": "ad", "sigma": "6.6406E-9", "value": "1.852533009398946", "title": "aphelion distance", "units": "au", "label": "Q"}], "epoch": "2461200.5"}